[{"OBJECT_NAME":"ASTRA 2A","OBJECT_ID":"1998-050A","EPOCH":"2022-08-18T21:11:42.527904","MEAN_MOTION":1.00273876,"ECCENTRICITY":0.0002133,"INCLINATION":3.5562,"RA_OF_ASC_NODE":84.9241,"ARG_OF_PERICENTER":75.9611,"MEAN_ANOMALY":181.4466,"EPHEMERIS_TYPE":0,"CLASSIFICATION_TYPE":"U","NORAD_CAT_ID":25462,"ELEMENT_SET_NO":999,"REV_AT_EPOCH":3231,"BSTAR":0,"MEAN_MOTION_DOT":6.0e-7,"MEAN_MOTION_DDOT":0},{"OBJECT_NAME":"SKYNET 4E","OBJECT_ID":"1999-009B","EPOCH":"2022-08-18T03:19:23.786400","MEAN_MOTION":1.00272462,"ECCENTRICITY":0.0003052,"INCLINATION":11.2776,"RA_OF_ASC_NODE":16.583,"ARG_OF_PERICENTER":136.7907,"MEAN_ANOMALY":221.7285,"EPHEMERIS_TYPE":0,"CLASSIFICATION_TYPE":"U","NORAD_CAT_ID":25639,"ELEMENT_SET_NO":999,"REV_AT_EPOCH":3735,"BSTAR":0,"MEAN_MOTION_DOT":-4.3e-7,"MEAN_MOTION_DDOT":0},{"OBJECT_NAME":"ABS-7","OBJECT_ID":"1999-046A","EPOCH":"2022-08-18T19:43:16.924224","MEAN_MOTION":0.99975333,"ECCENTRICITY":0.0005783,"INCLINATION":2.9156,"RA_OF_ASC_NODE":87.0222,"ARG_OF_PERICENTER":37.6108,"MEAN_ANOMALY":325.5364,"EPHEMERIS_TYPE":0,"CLASSIFICATION_TYPE":"U","NORAD_CAT_ID":25894,"ELEMENT_SET_NO":999,"REV_AT_EPOCH":8310,"BSTAR":0,"MEAN_MOTION_DOT":4.1e-7,"MEAN_MOTION_DDOT":0},{"OBJECT_NAME":"ABS-6","OBJECT_ID":"1999-053A","EPOCH":"2022-08-18T21:18:35.316000","MEAN_MOTION":1.00271222,"ECCENTRICITY":0.0003446,"INCLINATION":0.0682,"RA_OF_ASC_NODE":277.7111,"ARG_OF_PERICENTER":202.2204,"MEAN_ANOMALY":325.939,"EPHEMERIS_TYPE":0,"CLASSIFICATION_TYPE":"U","NORAD_CAT_ID":25924,"ELEMENT_SET_NO":999,"REV_AT_EPOCH":8382,"BSTAR":0,"MEAN_MOTION_DOT":-1.26e-6,"MEAN_MOTION_DDOT":0},{"OBJECT_NAME":"AMC-4 (GE-4)","OBJECT_ID":"1999-060A","EPOCH":"2022-08-18T18:10:54.955200","MEAN_MOTION":1.00271903,"ECCENTRICITY":0.0003053,"INCLINATION":1.6726,"RA_OF_ASC_NODE":91.1803,"ARG_OF_PERICENTER":68.6724,"MEAN_ANOMALY":305.0476,"EPHEMERIS_TYPE":0,"CLASSIFICATION_TYPE":"U","NORAD_CAT_ID":25954,"ELEMENT_SET_NO":999,"REV_AT_EPOCH":2953,"BSTAR":0,"MEAN_MOTION_DOT":8.0e-7,"MEAN_MOTION_DDOT":0},{"OBJECT_NAME":"UFO 10 (USA 146)","OBJECT_ID":"1999-063A","EPOCH":"2022-08-18T19:43:42.711168","MEAN_MOTION":1.00270242,"ECCENTRICITY":0.0005765,"INCLINATION":8.7842,"RA_OF_ASC_NODE":33.2111,"ARG_OF_PERICENTER":120.2995,"MEAN_ANOMALY":86.7117,"EPHEMERIS_TYPE":0,"CLASSIFICATION_TYPE":"U","NORAD_CAT_ID":25967,"ELEMENT_SET_NO":999,"REV_AT_EPOCH":8332,"BSTAR":0,"MEAN_MOTION_DOT":-1.96e-6,"MEAN_MOTION_DDOT":0},{"OBJECT_NAME":"GALAXY 11 (G-11)","OBJECT_ID":"1999-071A","EPOCH":"2022-08-18T20:06:15.666048","MEAN_MOTION":1.00272973,"ECCENTRICITY":5.07e-5,"INCLINATION":3.1594,"RA_OF_ASC_NODE":86.9587,"ARG_OF_PERICENTER":189.3392,"MEAN_ANOMALY":259.328,"EPHEMERIS_TYPE":0,"CLASSIFICATION_TYPE":"U","NORAD_CAT_ID":26038,"ELEMENT_SET_NO":999,"REV_AT_EPOCH":8306,"BSTAR":0,"MEAN_MOTION_DOT":-1.71e-6,"MEAN_MOTION_DDOT":0},{"OBJECT_NAME":"USA 148","OBJECT_ID":"2000-001A","EPOCH":"2022-08-18T17:57:58.940640","MEAN_MOTION":1.00273939,"ECCENTRICITY":0.000164,"INCLINATION":9.6343,"RA_OF_ASC_NODE":42.0281,"ARG_OF_PERICENTER":141.5019,"MEAN_ANOMALY":233.1754,"EPHEMERIS_TYPE":0,"CLASSIFICATION_TYPE":"U","NORAD_CAT_ID":26052,"ELEMENT_SET_NO":999,"REV_AT_EPOCH":1894,"BSTAR":0,"MEAN_MOTION_DOT":2.9e-7,"MEAN_MOTION_DDOT":0},{"OBJECT_NAME":"ASIASTAR","OBJECT_ID":"2000-016A","EPOCH":"2022-08-19T02:12:58.227840","MEAN_MOTION":1.00273641,"ECCENTRICITY":0.0004072,"INCLINATION":5.8226,"RA_OF_ASC_NODE":71.4702,"ARG_OF_PERICENTER":80.2199,"MEAN_ANOMALY":313.9616,"EPHEMERIS_TYPE":0,"CLASSIFICATION_TYPE":"U","NORAD_CAT_ID":26107,"ELEMENT_SET_NO":999,"REV_AT_EPOCH":8213,"BSTAR":0,"MEAN_MOTION_DOT":-3.43e-6,"MEAN_MOTION_DDOT":0},{"OBJECT_NAME":"USA 149 (DSP 20)","OBJECT_ID":"2000-024A","EPOCH":"2022-08-18T15:27:54.884736","MEAN_MOTION":1.00283457,"ECCENTRICITY":0.0001846,"INCLINATION":12.1254,"RA_OF_ASC_NODE":21.1007,"ARG_OF_PERICENTER":246.6883,"MEAN_ANOMALY":125.7401,"EPHEMERIS_TYPE":0,"CLASSIFICATION_TYPE":"U","NORAD_CAT_ID":26356,"ELEMENT_SET_NO":999,"REV_AT_EPOCH":1889,"BSTAR":0,"MEAN_MOTION_DOT":8.8e-7,"MEAN_MOTION_DDOT":0},{"OBJECT_NAME":"TDRS 8","OBJECT_ID":"2000-034A","EPOCH":"2022-08-18T20:32:29.558688","MEAN_MOTION":1.00267783,"ECCENTRICITY":0.001912,"INCLINATION":10.4629,"RA_OF_ASC_NODE":42.1123,"ARG_OF_PERICENTER":352.4498,"MEAN_ANOMALY":330.0018,"EPHEMERIS_TYPE":0,"CLASSIFICATION_TYPE":"U","NORAD_CAT_ID":26388,"ELEMENT_SET_NO":999,"REV_AT_EPOCH":8115,"BSTAR":0,"MEAN_MOTION_DOT":-2.42e-6,"MEAN_MOTION_DDOT":0},{"OBJECT_NAME":"INTELSAT 9 (IS-9)","OBJECT_ID":"2000-043A","EPOCH":"2022-08-18T20:18:41.543424","MEAN_MOTION":1.00271804,"ECCENTRICITY":0.0002367,"INCLINATION":7.3434,"RA_OF_ASC_NODE":60.8029,"ARG_OF_PERICENTER":103.0165,"MEAN_ANOMALY":58.0389,"EPHEMERIS_TYPE":0,"CLASSIFICATION_TYPE":"U","NORAD_CAT_ID":26451,"ELEMENT_SET_NO":999,"REV_AT_EPOCH":3012,"BSTAR":0,"MEAN_MOTION_DOT":-2.97e-6,"MEAN_MOTION_DDOT":0},{"OBJECT_NAME":"NSS-11 (AAP-1)","OBJECT_ID":"2000-059A","EPOCH":"2022-08-18T17:56:51.134784","MEAN_MOTION":1.00272307,"ECCENTRICITY":0.0001987,"INCLINATION":0.0554,"RA_OF_ASC_NODE":287.0486,"ARG_OF_PERICENTER":214.6971,"MEAN_ANOMALY":270.5362,"EPHEMERIS_TYPE":0,"CLASSIFICATION_TYPE":"U","NORAD_CAT_ID":26554,"ELEMENT_SET_NO":999,"REV_AT_EPOCH":2726,"BSTAR":0,"MEAN_MOTION_DOT":1.8e-7,"MEAN_MOTION_DDOT":0},{"OBJECT_NAME":"USA 153","OBJECT_ID":"2000-065A","EPOCH":"2022-08-18T21:11:25.870848","MEAN_MOTION":1.0027667,"ECCENTRICITY":5.64e-5,"INCLINATION":9.2025,"RA_OF_ASC_NODE":45.3522,"ARG_OF_PERICENTER":191.4075,"MEAN_ANOMALY":182.6496,"EPHEMERIS_TYPE":0,"CLASSIFICATION_TYPE":"U","NORAD_CAT_ID":26575,"ELEMENT_SET_NO":999,"REV_AT_EPOCH":1891,"BSTAR":0,"MEAN_MOTION_DOT":-3.33e-6,"MEAN_MOTION_DDOT":0},{"OBJECT_NAME":"AMC-6 (GE-6)","OBJECT_ID":"2000-067A","EPOCH":"2022-08-19T05:06:07.241184","MEAN_MOTION":1.00273454,"ECCENTRICITY":0.0002583,"INCLINATION":0.0405,"RA_OF_ASC_NODE":284.4796,"ARG_OF_PERICENTER":225.3995,"MEAN_ANOMALY":115.1757,"EPHEMERIS_TYPE":0,"CLASSIFICATION_TYPE":"U","NORAD_CAT_ID":26580,"ELEMENT_SET_NO":999,"REV_AT_EPOCH":7996,"BSTAR":0,"MEAN_MOTION_DOT":9.8e-7,"MEAN_MOTION_DDOT":0},{"OBJECT_NAME":"INTELSAT 1R (IS-1R)","OBJECT_ID":"2000-072A","EPOCH":"2022-08-18T21:18:05.178816","MEAN_MOTION":1.00271748,"ECCENTRICITY":6.12e-5,"INCLINATION":4.6169,"RA_OF_ASC_NODE":80.0702,"ARG_OF_PERICENTER":301.8432,"MEAN_ANOMALY":61.9173,"EPHEMERIS_TYPE":0,"CLASSIFICATION_TYPE":"U","NORAD_CAT_ID":26608,"ELEMENT_SET_NO":999,"REV_AT_EPOCH":2730,"BSTAR":0,"MEAN_MOTION_DOT":-1.48e-6,"MEAN_MOTION_DDOT":0},{"OBJECT_NAME":"ANIK F1","OBJECT_ID":"2000-076A","EPOCH":"2022-08-18T15:19:35.031360","MEAN_MOTION":1.00271982,"ECCENTRICITY":0.0010265,"INCLINATION":1.5891,"RA_OF_ASC_NODE":91.9251,"ARG_OF_PERICENTER":34.3946,"MEAN_ANOMALY":321.3228,"EPHEMERIS_TYPE":0,"CLASSIFICATION_TYPE":"U","NORAD_CAT_ID":26624,"ELEMENT_SET_NO":999,"REV_AT_EPOCH":2911,"BSTAR":0,"MEAN_MOTION_DOT":-6.9e-7,"MEAN_MOTION_DDOT":0},{"OBJECT_NAME":"ASTRA 2D","OBJECT_ID":"2000-081A","EPOCH":"2022-08-18T17:27:42.703776","MEAN_MOTION":1.00275483,"ECCENTRICITY":0.0001839,"INCLINATION":7.4204,"RA_OF_ASC_NODE":59.8815,"ARG_OF_PERICENTER":97.3663,"MEAN_ANOMALY":95.4396,"EPHEMERIS_TYPE":0,"CLASSIFICATION_TYPE":"U","NORAD_CAT_ID":26638,"ELEMENT_SET_NO":999,"REV_AT_EPOCH":3888,"BSTAR":0,"MEAN_MOTION_DOT":1.19e-6,"MEAN_MOTION_DDOT":0},{"OBJECT_NAME":"AMC-8 (GE-8)","OBJECT_ID":"2000-081B","EPOCH":"2022-08-18T14:33:40.139712","MEAN_MOTION":1.00272778,"ECCENTRICITY":0.0002774,"INCLINATION":2.5982,"RA_OF_ASC_NODE":87.944,"ARG_OF_PERICENTER":29.3604,"MEAN_ANOMALY":293.0606,"EPHEMERIS_TYPE":0,"CLASSIFICATION_TYPE":"U","NORAD_CAT_ID":26639,"ELEMENT_SET_NO":999,"REV_AT_EPOCH":7930,"BSTAR":0,"MEAN_MOTION_DOT":7.9e-7,"MEAN_MOTION_DDOT":0},{"OBJECT_NAME":"USA 157 (MILSTAR-2 2)","OBJECT_ID":"2001-009A","EPOCH":"2022-08-18T14:54:04.127904","MEAN_MOTION":1.00270287,"ECCENTRICITY":0.0003024,"INCLINATION":10.0624,"RA_OF_ASC_NODE":27.0189,"ARG_OF_PERICENTER":150.4391,"MEAN_ANOMALY":248.7819,"EPHEMERIS_TYPE":0,"CLASSIFICATION_TYPE":"U","NORAD_CAT_ID":26715,"ELEMENT_SET_NO":999,"REV_AT_EPOCH":1893,"BSTAR":0,"MEAN_MOTION_DOT":5.0e-8,"MEAN_MOTION_DDOT":0},{"OBJECT_NAME":"EUTELSAT 133 WEST A","OBJECT_ID":"2001-011A","EPOCH":"2022-08-18T20:38:13.175808","MEAN_MOTION":1.00274187,"ECCENTRICITY":0.0002195,"INCLINATION":3.8631,"RA_OF_ASC_NODE":82.1911,"ARG_OF_PERICENTER":76.9473,"MEAN_ANOMALY":344.7508,"EPHEMERIS_TYPE":0,"CLASSIFICATION_TYPE":"U","NORAD_CAT_ID":26719,"ELEMENT_SET_NO":999,"REV_AT_EPOCH":7852,"BSTAR":0,"MEAN_MOTION_DOT":6.8e-7,"MEAN_MOTION_DDOT":0},{"OBJECT_NAME":"INTELSAT 10 (IS-10)","OBJECT_ID":"2001-019A","EPOCH":"2022-08-18T19:40:38.706816","MEAN_MOTION":1.00273269,"ECCENTRICITY":0.0002372,"INCLINATION":5.7224,"RA_OF_ASC_NODE":72.8433,"ARG_OF_PERICENTER":66.7113,"MEAN_ANOMALY":300.5481,"EPHEMERIS_TYPE":0,"CLASSIFICATION_TYPE":"U","NORAD_CAT_ID":26766,"ELEMENT_SET_NO":999,"REV_AT_EPOCH":3160,"BSTAR":0,"MEAN_MOTION_DOT":2.5e-7,"MEAN_MOTION_DDOT":0},{"OBJECT_NAME":"INTELSAT 901 (IS-901)","OBJECT_ID":"2001-024A","EPOCH":"2022-08-18T20:34:42.650112","MEAN_MOTION":1.00272251,"ECCENTRICITY":0.0001018,"INCLINATION":0.047,"RA_OF_ASC_NODE":275.0108,"ARG_OF_PERICENTER":261.3829,"MEAN_ANOMALY":71.9459,"EPHEMERIS_TYPE":0,"CLASSIFICATION_TYPE":"U","NORAD_CAT_ID":26824,"ELEMENT_SET_NO":999,"REV_AT_EPOCH":895,"BSTAR":0,"MEAN_MOTION_DOT":-2.09e-6,"MEAN_MOTION_DDOT":0},{"OBJECT_NAME":"ASTRA 2C","OBJECT_ID":"2001-025A","EPOCH":"2022-08-18T12:32:42.621792","MEAN_MOTION":1.00274685,"ECCENTRICITY":0.0002743,"INCLINATION":4.7171,"RA_OF_ASC_NODE":78.7211,"ARG_OF_PERICENTER":73.4541,"MEAN_ANOMALY":290.3696,"EPHEMERIS_TYPE":0,"CLASSIFICATION_TYPE":"U","NORAD_CAT_ID":26853,"ELEMENT_SET_NO":999,"REV_AT_EPOCH":3102,"BSTAR":0,"MEAN_MOTION_DOT":-2.69e-6,"MEAN_MOTION_DDOT":0}]